GLOBALSTAR M067         
1 32263U 07048A   26004.49424935 -.00000099  00000+0 -87299-5 0  9996
2 32263  51.9709 166.8835 0002064  75.9363 328.0702 12.40683887834476
GLOBALSTAR M070         
1 32264U 07048B   26004.35673890 -.00000033  00000+0  39266-3 0  9994
2 32264  51.9737 235.6549 0000774  72.7611  98.1919 12.62328906839070
GLOBALSTAR M066         
1 32265U 07048C   26004.45893591 -.00000099  00000+0 -40916-4 0  9996
2 32265  51.9569 167.9282 0005650  67.3950 327.5753 12.30384344840079
GLOBALSTAR M068         
1 32266U 07048D   26004.35215904 -.00000005  00000+0  54936-3 0  9994
2 32266  51.9900  49.0307 0001114 198.0297 246.9742 12.62837672842979
GLOBALSTAR M079         
1 37188U 10054A   26004.16957436 -.00000060  00000+0  24636-3 0  9990
2 37188  52.0027 247.9663 0001024  54.6849 113.9996 12.62269716701834
GLOBALSTAR M074         
1 37189U 10054B   26004.17820780 -.00000056  00000+0  26477-3 0  9993
2 37189  52.0004 247.2314 0001079  74.1665  13.3058 12.62265017702449
GLOBALSTAR M076         
1 37190U 10054C   26004.14267109 -.00000063  00000+0  22607-3 0  9991
2 37190  52.0022 247.5298 0001185  67.6370  97.4339 12.62268863702158
GLOBALSTAR M077         
1 37191U 10054D   26004.42315966 -.00000033  00000+0  82143-3 0  9996
2 37191  51.9950 235.2561 0001624  62.5620 109.1754 11.68177174702009
